{"epoch":1784799577,"count":18318,"objects":[{"id":"62250","name":"QIANFAN-49","type":"PAYLOAD","l1":"1 62250U 24232P   26203.88164047  .00000051  00000-0  60900-4 0  9994","l2":"2 62250  89.0079  18.9185 0012123 273.6500  86.3265 13.51014430 97833"},{"id":"62251","name":"QIANFAN-50","type":"PAYLOAD","l1":"1 62251U 24232Q   26203.90642574  .00000048  00000-0  56202-4 0  9990","l2":"2 62251  89.0085  18.9363 0013783 275.1224  84.8354 13.51023311 97865"},{"id":"62252","name":"QIANFAN-51","type":"PAYLOAD","l1":"1 62252U 24232R   26203.88998058  .00000050  00000-0  58460-4 0  9990","l2":"2 62252  89.0079  18.9181 0011266 279.8842  80.1037 13.51022508 97851"},{"id":"62253","name":"QIANFAN-52","type":"PAYLOAD","l1":"1 62253U 24232S   26203.91868499  .00000069  00000-0  88591-4 0  9998","l2":"2 62253  89.0075  18.7801 0013265 270.3981  89.5650 13.51014318 97940"},{"id":"62254","name":"QIANFAN-53","type":"PAYLOAD","l1":"1 62254U 24232T   26203.89819636  .00000043  00000-0  48284-4 0  9992","l2":"2 62254  89.0082  18.9036 0012149 271.7872  88.1888 13.51010143 97901"},{"id":"62255","name":"QIANFAN-54","type":"PAYLOAD","l1":"1 62255U 24232U   26203.86521267  .00000028  00000-0  24291-4 0  9995","l2":"2 62255  89.0074  18.5656 0001532  21.0149 339.1065 13.51013888129400"},{"id":"62785","name":"QIANFAN-55","type":"PAYLOAD","l1":"1 62785U 25016A   26203.89139073  .00000060  00000-0  73321-4 0  9991","l2":"2 62785  88.9708  80.1727 0019356  67.8546 292.4657 13.51012102 77189"},{"id":"62786","name":"QIANFAN-56","type":"PAYLOAD","l1":"1 62786U 25016B   26203.90784464  .00000085  00000-0  11196-3 0  9992","l2":"2 62786  88.9682  79.9481 0018004  70.0426 290.2662 13.51022998 77238"},{"id":"62787","name":"QIANFAN-57","type":"PAYLOAD","l1":"1 62787U 25016C   26203.94074117  .00000081  00000-0  10601-3 0  9990","l2":"2 62787  88.9712  80.1674 0001416  93.9809 266.1504 13.51010746 77201"},{"id":"62788","name":"QIANFAN-58","type":"PAYLOAD","l1":"1 62788U 25016D   26203.91179416  .00000086  00000-0  11426-3 0  9997","l2":"2 62788  88.9683  79.9342 0015853  63.5649 296.7127 13.51015301 77248"},{"id":"62789","name":"QIANFAN-59","type":"PAYLOAD","l1":"1 62789U 25016E   26203.93649023  .00000081  00000-0  10686-3 0  9998","l2":"2 62789  88.9706  80.0578 0016255  66.7966 293.4895 13.51019484 77245"},{"id":"62790","name":"QIANFAN-60","type":"PAYLOAD","l1":"1 62790U 25016F   26203.89549254  .00000073  00000-0  93540-4 0  9992","l2":"2 62790  88.9687  79.9912 0017775  63.5535 296.7438 13.51022401 77229"},{"id":"62791","name":"QIANFAN-61","type":"PAYLOAD","l1":"1 62791U 25016G   26203.85437680  .00000064  00000-0  80605-4 0  9996","l2":"2 62791  88.9754  80.3089 0016738  63.3959 296.8905 13.51022409 77231"},{"id":"62792","name":"QIANFAN-62","type":"PAYLOAD","l1":"1 62792U 25016H   26203.85828831  .00000076  00000-0  98971-4 0  9997","l2":"2 62792  88.9701  80.0575 0018080  63.4204 296.8798 13.51014910 77224"},{"id":"62793","name":"QIANFAN-63","type":"PAYLOAD","l1":"1 62793U 25016J   26203.88304629  .00000073  00000-0  94472-4 0  9994","l2":"2 62793  88.9708  80.0214 0018185  68.0948 292.2134 13.51018170 77264"},{"id":"62794","name":"QIANFAN-64","type":"PAYLOAD","l1":"1 62794U 25016K   26203.92426383  .00000076  00000-0  98049-4 0  9999","l2":"2 62794  88.9694  79.9614 0016052  62.0040 298.2733 13.51014650 77268"}]}