{"fetched_at":"2026-07-23T07:05:22.094Z","source":"https://celestrak.org/NORAD/elements/gp.php?GROUP=qianfan&FORMAT=JSON","constellation":"qianfan","records":[{"OBJECT_NAME":"QIANFAN-49","OBJECT_ID":"2024-232P","EPOCH":"2026-07-22T21:09:33.736608","CLASSIFICATION_TYPE":"U","MEAN_MOTION":13.5101443,"ECCENTRICITY":0.00121233,"INCLINATION":89.0079,"RA_OF_ASC_NODE":18.9185,"ARG_OF_PERICENTER":273.65,"MEAN_ANOMALY":86.3265,"EPHEMERIS_TYPE":0,"NORAD_CAT_ID":62250,"ELEMENT_SET_NO":999,"REV_AT_EPOCH":9783,"BSTAR":0.00006090022,"MEAN_MOTION_DOT":5.1e-7,"MEAN_MOTION_DDOT":0},{"OBJECT_NAME":"QIANFAN-50","OBJECT_ID":"2024-232Q","EPOCH":"2026-07-22T21:45:15.183936","CLASSIFICATION_TYPE":"U","MEAN_MOTION":13.51023311,"ECCENTRICITY":0.0013783,"INCLINATION":89.0085,"RA_OF_ASC_NODE":18.9363,"ARG_OF_PERICENTER":275.1224,"MEAN_ANOMALY":84.8354,"EPHEMERIS_TYPE":0,"NORAD_CAT_ID":62251,"ELEMENT_SET_NO":999,"REV_AT_EPOCH":9786,"BSTAR":0.000056202224,"MEAN_MOTION_DOT":4.8e-7,"MEAN_MOTION_DDOT":0},{"OBJECT_NAME":"QIANFAN-51","OBJECT_ID":"2024-232R","EPOCH":"2026-07-22T21:21:34.322112","CLASSIFICATION_TYPE":"U","MEAN_MOTION":13.51022508,"ECCENTRICITY":0.00112663,"INCLINATION":89.0079,"RA_OF_ASC_NODE":18.9181,"ARG_OF_PERICENTER":279.8842,"MEAN_ANOMALY":80.1037,"EPHEMERIS_TYPE":0,"NORAD_CAT_ID":62252,"ELEMENT_SET_NO":999,"REV_AT_EPOCH":9785,"BSTAR":0.000058460405,"MEAN_MOTION_DOT":5e-7,"MEAN_MOTION_DDOT":0},{"OBJECT_NAME":"QIANFAN-52","OBJECT_ID":"2024-232S","EPOCH":"2026-07-22T22:02:54.383136","CLASSIFICATION_TYPE":"U","MEAN_MOTION":13.51014318,"ECCENTRICITY":0.00132652,"INCLINATION":89.0075,"RA_OF_ASC_NODE":18.7801,"ARG_OF_PERICENTER":270.3981,"MEAN_ANOMALY":89.565,"EPHEMERIS_TYPE":0,"NORAD_CAT_ID":62253,"ELEMENT_SET_NO":999,"REV_AT_EPOCH":9794,"BSTAR":0.000088590878,"MEAN_MOTION_DOT":6.9e-7,"MEAN_MOTION_DDOT":0},{"OBJECT_NAME":"QIANFAN-53","OBJECT_ID":"2024-232T","EPOCH":"2026-07-22T21:33:24.165504","CLASSIFICATION_TYPE":"U","MEAN_MOTION":13.51010143,"ECCENTRICITY":0.00121494,"INCLINATION":89.0082,"RA_OF_ASC_NODE":18.9036,"ARG_OF_PERICENTER":271.7872,"MEAN_ANOMALY":88.1888,"EPHEMERIS_TYPE":0,"NORAD_CAT_ID":62254,"ELEMENT_SET_NO":999,"REV_AT_EPOCH":9790,"BSTAR":0.000048283876,"MEAN_MOTION_DOT":4.3e-7,"MEAN_MOTION_DDOT":0},{"OBJECT_NAME":"QIANFAN-54","OBJECT_ID":"2024-232U","EPOCH":"2026-07-22T20:45:54.374688","CLASSIFICATION_TYPE":"U","MEAN_MOTION":13.51013888,"ECCENTRICITY":0.00015321,"INCLINATION":89.0074,"RA_OF_ASC_NODE":18.5656,"ARG_OF_PERICENTER":21.0149,"MEAN_ANOMALY":339.1065,"EPHEMERIS_TYPE":0,"NORAD_CAT_ID":62255,"ELEMENT_SET_NO":999,"REV_AT_EPOCH":12940,"BSTAR":0.000024290876,"MEAN_MOTION_DOT":2.8e-7,"MEAN_MOTION_DDOT":0},{"OBJECT_NAME":"QIANFAN-55","OBJECT_ID":"2025-016A","EPOCH":"2026-07-22T21:23:36.159072","CLASSIFICATION_TYPE":"U","MEAN_MOTION":13.51012102,"ECCENTRICITY":0.00193555,"INCLINATION":88.9708,"RA_OF_ASC_NODE":80.1727,"ARG_OF_PERICENTER":67.8546,"MEAN_ANOMALY":292.4657,"EPHEMERIS_TYPE":0,"NORAD_CAT_ID":62785,"ELEMENT_SET_NO":999,"REV_AT_EPOCH":7718,"BSTAR":0.00007332109,"MEAN_MOTION_DOT":6e-7,"MEAN_MOTION_DDOT":0},{"OBJECT_NAME":"QIANFAN-56","OBJECT_ID":"2025-016B","EPOCH":"2026-07-22T21:47:17.776896","CLASSIFICATION_TYPE":"U","MEAN_MOTION":13.51022998,"ECCENTRICITY":0.00180045,"INCLINATION":88.9682,"RA_OF_ASC_NODE":79.9481,"ARG_OF_PERICENTER":70.0426,"MEAN_ANOMALY":290.2662,"EPHEMERIS_TYPE":0,"NORAD_CAT_ID":62786,"ELEMENT_SET_NO":999,"REV_AT_EPOCH":7723,"BSTAR":0.00011196383,"MEAN_MOTION_DOT":8.5e-7,"MEAN_MOTION_DDOT":0},{"OBJECT_NAME":"QIANFAN-57","OBJECT_ID":"2025-016C","EPOCH":"2026-07-22T22:34:40.037088","CLASSIFICATION_TYPE":"U","MEAN_MOTION":13.51010746,"ECCENTRICITY":0.00014164,"INCLINATION":88.9712,"RA_OF_ASC_NODE":80.1674,"ARG_OF_PERICENTER":93.9809,"MEAN_ANOMALY":266.1504,"EPHEMERIS_TYPE":0,"NORAD_CAT_ID":62787,"ELEMENT_SET_NO":999,"REV_AT_EPOCH":7720,"BSTAR":0.00010601217,"MEAN_MOTION_DOT":8.1e-7,"MEAN_MOTION_DDOT":0},{"OBJECT_NAME":"QIANFAN-58","OBJECT_ID":"2025-016D","EPOCH":"2026-07-22T21:52:59.015424","CLASSIFICATION_TYPE":"U","MEAN_MOTION":13.51015301,"ECCENTRICITY":0.00158527,"INCLINATION":88.9683,"RA_OF_ASC_NODE":79.9342,"ARG_OF_PERICENTER":63.5649,"MEAN_ANOMALY":296.7127,"EPHEMERIS_TYPE":0,"NORAD_CAT_ID":62788,"ELEMENT_SET_NO":999,"REV_AT_EPOCH":7724,"BSTAR":0.00011426406,"MEAN_MOTION_DOT":8.6e-7,"MEAN_MOTION_DDOT":0},{"OBJECT_NAME":"QIANFAN-59","OBJECT_ID":"2025-016E","EPOCH":"2026-07-22T22:28:32.755872","CLASSIFICATION_TYPE":"U","MEAN_MOTION":13.51019484,"ECCENTRICITY":0.00162548,"INCLINATION":88.9706,"RA_OF_ASC_NODE":80.0578,"ARG_OF_PERICENTER":66.7966,"MEAN_ANOMALY":293.4895,"EPHEMERIS_TYPE":0,"NORAD_CAT_ID":62789,"ELEMENT_SET_NO":999,"REV_AT_EPOCH":7724,"BSTAR":0.00010685989,"MEAN_MOTION_DOT":8.1e-7,"MEAN_MOTION_DDOT":0},{"OBJECT_NAME":"QIANFAN-60","OBJECT_ID":"2025-016F","EPOCH":"2026-07-22T21:29:30.555456","CLASSIFICATION_TYPE":"U","MEAN_MOTION":13.51022401,"ECCENTRICITY":0.00177748,"INCLINATION":88.9687,"RA_OF_ASC_NODE":79.9912,"ARG_OF_PERICENTER":63.5535,"MEAN_ANOMALY":296.7438,"EPHEMERIS_TYPE":0,"NORAD_CAT_ID":62790,"ELEMENT_SET_NO":999,"REV_AT_EPOCH":7722,"BSTAR":0.000093540061,"MEAN_MOTION_DOT":7.3e-7,"MEAN_MOTION_DDOT":0},{"OBJECT_NAME":"QIANFAN-61","OBJECT_ID":"2025-016G","EPOCH":"2026-07-22T20:30:18.155520","CLASSIFICATION_TYPE":"U","MEAN_MOTION":13.51022409,"ECCENTRICITY":0.00167379,"INCLINATION":88.9754,"RA_OF_ASC_NODE":80.3089,"ARG_OF_PERICENTER":63.3959,"MEAN_ANOMALY":296.8905,"EPHEMERIS_TYPE":0,"NORAD_CAT_ID":62791,"ELEMENT_SET_NO":999,"REV_AT_EPOCH":7723,"BSTAR":0.000080605012,"MEAN_MOTION_DOT":6.4e-7,"MEAN_MOTION_DDOT":0},{"OBJECT_NAME":"QIANFAN-62","OBJECT_ID":"2025-016H","EPOCH":"2026-07-22T20:35:56.109984","CLASSIFICATION_TYPE":"U","MEAN_MOTION":13.5101491,"ECCENTRICITY":0.00180796,"INCLINATION":88.9701,"RA_OF_ASC_NODE":80.0575,"ARG_OF_PERICENTER":63.4204,"MEAN_ANOMALY":296.8798,"EPHEMERIS_TYPE":0,"NORAD_CAT_ID":62792,"ELEMENT_SET_NO":999,"REV_AT_EPOCH":7722,"BSTAR":0.000098970712,"MEAN_MOTION_DOT":7.6e-7,"MEAN_MOTION_DDOT":0},{"OBJECT_NAME":"QIANFAN-63","OBJECT_ID":"2025-016J","EPOCH":"2026-07-22T21:11:35.199456","CLASSIFICATION_TYPE":"U","MEAN_MOTION":13.5101817,"ECCENTRICITY":0.0018185,"INCLINATION":88.9708,"RA_OF_ASC_NODE":80.0214,"ARG_OF_PERICENTER":68.0948,"MEAN_ANOMALY":292.2134,"EPHEMERIS_TYPE":0,"NORAD_CAT_ID":62793,"ELEMENT_SET_NO":999,"REV_AT_EPOCH":7726,"BSTAR":0.000094471524,"MEAN_MOTION_DOT":7.3e-7,"MEAN_MOTION_DDOT":0},{"OBJECT_NAME":"QIANFAN-64","OBJECT_ID":"2025-016K","EPOCH":"2026-07-22T22:10:56.394912","CLASSIFICATION_TYPE":"U","MEAN_MOTION":13.5101465,"ECCENTRICITY":0.00160522,"INCLINATION":88.9694,"RA_OF_ASC_NODE":79.9614,"ARG_OF_PERICENTER":62.004,"MEAN_ANOMALY":298.2733,"EPHEMERIS_TYPE":0,"NORAD_CAT_ID":62794,"ELEMENT_SET_NO":999,"REV_AT_EPOCH":7726,"BSTAR":0.000098049111,"MEAN_MOTION_DOT":7.6e-7,"MEAN_MOTION_DDOT":0}]}
